{
  "type": "FeatureCollection",
  "features": [
    {
      "type": "Feature",
      "properties": {
        "norad_id": 30136,
        "name": "FENGYUN 1C DEB",
        "group": "fengyun-1c-debris",
        "lat": -48.36606011695319,
        "lon": -102.60332080563713,
        "alt_km": 923.223481229863,
        "timestamp": "2025-12-21T09:37:22.928800+00:00",
        "meta_object_name": "FENGYUN 1C DEB",
        "meta_object_id": "1999-025SR",
        "meta_epoch": "2025-12-21T03:43:24.820032",
        "meta_mean_motion": 13.95333895,
        "meta_eccentricity": 0.0129429,
        "meta_inclination": 98.5564,
        "meta_ra_of_asc_node": 247.4174,
        "meta_arg_of_pericenter": 46.3155,
        "meta_mean_anomaly": 112.0705,
        "meta_ephemeris_type": 0,
        "meta_classification_type": "U",
        "meta_norad_cat_id": 30136,
        "meta_element_set_no": 999,
        "meta_rev_at_epoch": 96208,
        "meta_bstar": 0.00040311,
        "meta_mean_motion_dot": 5.46e-06,
        "meta_mean_motion_ddot": 0,
        "tle_line1": "1 30136U 99025SR  25355.15514838  .00000546  00000+0  40311-3 0  9999",
        "tle_line2": "2 30136  98.5564 247.4174 0129429  46.3155 112.0705 13.95333895962082"
      },
      "geometry": {
        "type": "Point",
        "coordinates": [
          -102.60332080563713,
          -48.36606011695319
        ]
      }
    },
    {
      "type": "Feature",
      "properties": {
        "norad_id": 30138,
        "name": "FENGYUN 1C DEB",
        "group": "fengyun-1c-debris",
        "lat": 81.14477838337245,
        "lon": -49.72189326624224,
        "alt_km": 804.246251792023,
        "timestamp": "2025-12-21T09:37:22.928810+00:00",
        "meta_object_name": "FENGYUN 1C DEB",
        "meta_object_id": "1999-025ST",
        "meta_epoch": "2025-12-20T22:11:48.016320",
        "meta_mean_motion": 14.20052231,
        "meta_eccentricity": 0.0020348,
        "meta_inclination": 98.7585,
        "meta_ra_of_asc_node": 48.1035,
        "meta_arg_of_pericenter": 115.9643,
        "meta_mean_anomaly": 62.8617,
        "meta_ephemeris_type": 0,
        "meta_classification_type": "U",
        "meta_norad_cat_id": 30138,
        "meta_element_set_no": 999,
        "meta_rev_at_epoch": 97517,
        "meta_bstar": 0.00056949,
        "meta_mean_motion_dot": 1.171e-05,
        "meta_mean_motion_ddot": 0,
        "tle_line1": "1 30138U 99025ST  25354.92486130  .00001171  00000+0  56949-3 0  9997",
        "tle_line2": "2 30138  98.7585  48.1035 0020348 115.9643  62.8617 14.20052231975175"
      },
      "geometry": {
        "type": "Point",
        "coordinates": [
          -49.72189326624224,
          81.14477838337245
        ]
      }
    },
    {
      "type": "Feature",
      "properties": {
        "norad_id": 30139,
        "name": "FENGYUN 1C DEB",
        "group": "fengyun-1c-debris",
        "lat": 40.63906196466219,
        "lon": 25.559832405266963,
        "alt_km": 934.3866205115646,
        "timestamp": "2025-12-21T09:37:22.928820+00:00",
        "meta_object_name": "FENGYUN 1C DEB",
        "meta_object_id": "1999-025SU",
        "meta_epoch": "2025-12-20T12:41:13.934400",
        "meta_mean_motion": 14.03677489,
        "meta_eccentricity": 0.0130916,
        "meta_inclination": 98.3653,
        "meta_ra_of_asc_node": 197.5016,
        "meta_arg_of_pericenter": 268.3336,
        "meta_mean_anomaly": 146.0114,
        "meta_ephemeris_type": 0,
        "meta_classification_type": "U",
        "meta_norad_cat_id": 30139,
        "meta_element_set_no": 999,
        "meta_rev_at_epoch": 96359,
        "meta_bstar": 0.00074815,
        "meta_mean_motion_dot": 1.228e-05,
        "meta_mean_motion_ddot": 0,
        "tle_line1": "1 30139U 99025SU  25354.52863350  .00001228  00000+0  74815-3 0  9992",
        "tle_line2": "2 30139  98.3653 197.5016 0130916 268.3336 146.0114 14.03677489963590"
      },
      "geometry": {
        "type": "Point",
        "coordinates": [
          25.559832405266963,
          40.63906196466219
        ]
      }
    },
    {
      "type": "Feature",
      "properties": {
        "norad_id": 30140,
        "name": "FENGYUN 1C DEB",
        "group": "fengyun-1c-debris",
        "lat": -69.12933728474589,
        "lon": 82.30745422592335,
        "alt_km": 800.5364312650845,
        "timestamp": "2025-12-21T09:37:22.928830+00:00",
        "meta_object_name": "FENGYUN 1C DEB",
        "meta_object_id": "1999-025SV",
        "meta_epoch": "2025-12-20T22:58:02.462016",
        "meta_mean_motion": 14.20787968,
        "meta_eccentricity": 0.0040948,
        "meta_inclination": 98.8258,
        "meta_ra_of_asc_node": 57.8166,
        "meta_arg_of_pericenter": 285.4592,
        "meta_mean_anomaly": 253.8839,
        "meta_ephemeris_type": 0,
        "meta_classification_type": "U",
        "meta_norad_cat_id": 30140,
        "meta_element_set_no": 999,
        "meta_rev_at_epoch": 97260,
        "meta_bstar": 0.00086556,
        "meta_mean_motion_dot": 1.84e-05,
        "meta_mean_motion_ddot": 0,
        "tle_line1": "1 30140U 99025SV  25354.95697294  .00001840  00000+0  86556-3 0  9998",
        "tle_line2": "2 30140  98.8258  57.8166 0040948 285.4592 253.8839 14.20787968972607"
      },
      "geometry": {
        "type": "Point",
        "coordinates": [
          82.30745422592335,
          -69.12933728474589
        ]
      }
    },
    {
      "type": "Feature",
      "properties": {
        "norad_id": 30141,
        "name": "FENGYUN 1C DEB",
        "group": "fengyun-1c-debris",
        "lat": -45.86017073234787,
        "lon": 88.37908186387534,
        "alt_km": 738.2239512155984,
        "timestamp": "2025-12-21T09:37:22.928840+00:00",
        "meta_object_name": "FENGYUN 1C DEB",
        "meta_object_id": "1999-025SW",
        "meta_epoch": "2025-12-20T17:41:41.856000",
        "meta_mean_motion": 14.51712966,
        "meta_eccentricity": 0.00194535,
        "meta_inclination": 99.0152,
        "meta_ra_of_asc_node": 277.0835,
        "meta_arg_of_pericenter": 14.727,
        "meta_mean_anomaly": 345.4486,
        "meta_ephemeris_type": 0,
        "meta_classification_type": "U",
        "meta_norad_cat_id": 30141,
        "meta_element_set_no": 999,
        "meta_rev_at_epoch": 98360,
        "meta_bstar": 0.0016258312,
        "meta_mean_motion_dot": 6.498e-05,
        "meta_mean_motion_ddot": 0,
        "tle_line1": "1 30141U 99025SW  25354.73729000  .00006498  00000+0  16258-2 0  9991",
        "tle_line2": "2 30141  99.0152 277.0835 0019453  14.7270 345.4486 14.51712966983604"
      },
      "geometry": {
        "type": "Point",
        "coordinates": [
          88.37908186387534,
          -45.86017073234787
        ]
      }
    },
    {
      "type": "Feature",
      "properties": {
        "norad_id": 30142,
        "name": "FENGYUN 1C DEB",
        "group": "fengyun-1c-debris",
        "lat": -54.924695701042275,
        "lon": -121.92643011324623,
        "alt_km": 814.5428269523545,
        "timestamp": "2025-12-21T09:37:22.928850+00:00",
        "meta_object_name": "FENGYUN 1C DEB",
        "meta_object_id": "1999-025SX",
        "meta_epoch": "2025-12-20T22:17:02.208192",
        "meta_mean_motion": 14.10522584,
        "meta_eccentricity": 0.0101919,
        "meta_inclination": 99.128,
        "meta_ra_of_asc_node": 70.8305,
        "meta_arg_of_pericenter": 284.9775,
        "meta_mean_anomaly": 74.0131,
        "meta_ephemeris_type": 0,
        "meta_classification_type": "U",
        "meta_norad_cat_id": 30142,
        "meta_element_set_no": 999,
        "meta_rev_at_epoch": 96414,
        "meta_bstar": 0.001238,
        "meta_mean_motion_dot": 2.268e-05,
        "meta_mean_motion_ddot": 0,
        "tle_line1": "1 30142U 99025SX  25354.92849778  .00002268  00000+0  12380-2 0  9991",
        "tle_line2": "2 30142  99.1280  70.8305 0101919 284.9775  74.0131 14.10522584964149"
      },
      "geometry": {
        "type": "Point",
        "coordinates": [
          -121.92643011324623,
          -54.924695701042275
        ]
      }
    },
    {
      "type": "Feature",
      "properties": {
        "norad_id": 30143,
        "name": "FENGYUN 1C DEB",
        "group": "fengyun-1c-debris",
        "lat": -75.7630256750621,
        "lon": -144.36611774285714,
        "alt_km": 819.2631665040999,
        "timestamp": "2025-12-21T09:37:22.928860+00:00",
        "meta_object_name": "FENGYUN 1C DEB",
        "meta_object_id": "1999-025SY",
        "meta_epoch": "2025-12-21T02:02:40.099776",
        "meta_mean_motion": 14.02609652,
        "meta_eccentricity": 0.0103489,
        "meta_inclination": 98.7346,
        "meta_ra_of_asc_node": 178.0364,
        "meta_arg_of_pericenter": 267.6186,
        "meta_mean_anomaly": 219.8109,
        "meta_ephemeris_type": 0,
        "meta_classification_type": "U",
        "meta_norad_cat_id": 30143,
        "meta_element_set_no": 999,
        "meta_rev_at_epoch": 96336,
        "meta_bstar": 0.00078526,
        "meta_mean_motion_dot": 1.226e-05,
        "meta_mean_motion_ddot": 0,
        "tle_line1": "1 30143U 99025SY  25355.08518634  .00001226  00000+0  78526-3 0  9992",
        "tle_line2": "2 30143  98.7346 178.0364 0103489 267.6186 219.8109 14.02609652963362"
      },
      "geometry": {
        "type": "Point",
        "coordinates": [
          -144.36611774285714,
          -75.7630256750621
        ]
      }
    }
  ]
}